[{"OBJECT_NAME":"TRANSPORTER-10 OBJECT AG","OBJECT_ID":"2024-043AG","EPOCH":"2026-03-09T22:12:45.387648","MEAN_MOTION":15.30759727,"ECCENTRICITY":0.00093005,"INCLINATION":97.5471,"RA_OF_ASC_NODE":205.7101,"ARG_OF_PERICENTER":226.5958,"MEAN_ANOMALY":133.4509,"EPHEMERIS_TYPE":0,"CLASSIFICATION_TYPE":"U","NORAD_CAT_ID":59128,"ELEMENT_SET_NO":999,"REV_AT_EPOCH":11192,"BSTAR":0.00032170115,"MEAN_MOTION_DOT":9.498e-5,"MEAN_MOTION_DDOT":0},{"OBJECT_NAME":"STARLINK-32327","OBJECT_ID":"2024-191W","EPOCH":"2026-03-09T06:23:01.225824","MEAN_MOTION":15.27589969,"ECCENTRICITY":0.0001265,"INCLINATION":42.9998,"RA_OF_ASC_NODE":156.7153,"ARG_OF_PERICENTER":212.4591,"MEAN_ANOMALY":147.6183,"EPHEMERIS_TYPE":0,"CLASSIFICATION_TYPE":"U","NORAD_CAT_ID":61641,"ELEMENT_SET_NO":999,"REV_AT_EPOCH":7747,"BSTAR":-0.0001948088,"MEAN_MOTION_DOT":-5.62e-5,"MEAN_MOTION_DDOT":0}]
